OBJECT_NAME,OBJECT_ID,EPOCH,MEAN_MOTION,ECCENTRICITY,INCLINATION,RA_OF_ASC_NODE,ARG_OF_PERICENTER,MEAN_ANOMALY,EPHEMERIS_TYPE,CLASSIFICATION_TYPE,NORAD_CAT_ID,ELEMENT_SET_NO,REV_AT_EPOCH,BSTAR,MEAN_MOTION_DOT,MEAN_MOTION_DDOT
GUOWANG OBJECT D,2026-137D,2026-06-27T08:32:42.142848,13.89828486,.0011108,49.9957,214.8332,258.4401,101.5250,0,U,69575,999,144,.24075E-4,-.116E-5,0
GUOWANG OBJECT E,2026-137E,2026-06-27T11:58:20.272800,13.89826230,.0011205,50.0006,214.2729,261.6925,98.2703,0,U,69576,999,146,.12809E-3,.12E-6,0
GUOWANG OBJECT F,2026-137F,2026-06-27T11:56:56.836320,13.89813043,.0010654,50.0001,214.2613,257.6061,102.3645,0,U,69577,999,146,.12421E-3,.8E-7,0
GUOWANG OBJECT G,2026-137G,2026-06-27T06:44:48.138144,13.90789809,.0010928,49.9950,215.1041,261.8500,98.1159,0,U,69578,999,143,.11082E-3,-.7E-7,0
GUOWANG OBJECT H,2026-137H,2026-06-25T11:38:14.756064,13.92076941,.0010122,49.9967,222.2731,259.8752,100.1006,0,U,69579,999,118,.1427E-3,.37E-6,0
GUOWANG OBJECT J,2026-137J,2026-06-26T20:20:45.696768,13.92262275,.0009809,49.9963,216.8154,259.3048,100.6747,0,U,69580,999,137,.1342E-3,.26E-6,0
CENTISPACE-1 GROUP 05 OBJECT A,2026-138A,2026-06-27T12:32:05.087040,14.15475814,.0010164,55.1414,242.9999,302.6733,57.3260,0,U,69582,999,148,-.11747E-3,-.384E-5,0
CENTISPACE-1 GROUP 05 OBJECT B,2026-138B,2026-06-27T12:30:09.527904,14.15656939,.0009112,55.1413,242.9906,302.4674,57.5419,0,U,69583,999,148,-.10949E-3,-.369E-5,0
CENTISPACE-1 GROUP 05 OBJECT C,2026-138C,2026-06-27T12:29:15.036288,14.15740914,.0009042,55.1416,242.9961,304.4570,55.5549,0,U,69584,999,148,-.54573E-4,-.261E-5,0
CENTISPACE-1 GROUP 05 OBJECT D,2026-138D,2026-06-27T12:27:34.820064,14.15928294,.0008594,55.1418,242.9798,302.9823,57.0325,0,U,69585,999,148,-.10372E-3,-.359E-5,0
CENTISPACE-1 GROUP 05 OBJECT E,2026-138E,2026-06-27T12:26:53.406816,14.15994520,.0008319,55.1415,242.9846,303.3518,56.6660,0,U,69586,999,148,-.82949E-4,-.318E-5,0
CENTISPACE-1 GROUP 05 OBJECT F,2026-138F,2026-06-27T12:27:26.645760,14.15917759,.0008162,55.1418,242.9879,307.9415,52.0821,0,U,69587,999,148,-.93984E-4,-.34E-5,0
CENTISPACE-1 GROUP 05 OBJECT G,2026-138G,2026-06-27T12:25:41.122848,14.16082228,.0007451,55.1418,242.9784,307.2578,52.7716,0,U,69588,999,148,-.78459E-4,-.309E-5,0
SPACEMOBILE-008,2026-139A,2026-06-27T12:19:03.728640,15.12780473,.0004013,52.9937,215.6857,11.4857,348.6225,0,U,69589,999,154,.50512E-4,.596E-5,0
SPACEMOBILE-009,2026-139B,2026-06-27T12:20:05.489088,15.12673959,.0004196,52.9929,215.6865,5.6278,354.4759,0,U,69590,999,154,.48715E-4,.562E-5,0
SPACEMOBILE-010,2026-139C,2026-06-27T12:21:43.814880,15.12505239,.000405,52.9934,215.6957,355.3386,4.7567,0,U,69591,999,155,.47935E-4,.544E-5,0
KUIPER-00423,2026-140A,2026-06-27T12:00:02.000160,15.38215993,.0014194,51.8812,348.7365,200.3177,85.9456,0,U,69592,999,130,.68181E-3,.25845E-3,0
KUIPER-00428,2026-140B,2026-06-27T12:00:02.000160,15.36489644,.0006964,51.8820,348.9573,332.4245,205.9299,0,U,69593,999,275,.56953E-3,.20273E-3,0
KUIPER-00481,2026-140C,2026-06-27T12:00:02.000160,15.37526946,.0011548,51.8793,348.7807,208.6857,55.3347,0,U,69594,999,225,.61367E-3,.22667E-3,0
KUIPER-00490,2026-140D,2026-06-27T12:00:02.000160,15.37458297,.0005818,51.8791,348.8823,267.4908,305.2061,0,U,69595,999,273,.5847E-3,.21493E-3,0
KUIPER-00493,2026-140E,2026-06-27T12:00:02.000160,15.36237205,.0006763,51.8820,348.9816,340.8377,185.6244,0,U,69596,999,222,.55035E-3,.19414E-3,0
KUIPER-00496,2026-140F,2026-06-27T12:00:02.000160,15.35370741,.0008245,51.8808,349.0098,346.5613,164.1913,0,U,69597,999,276,.59126E-3,.20315E-3,0
KUIPER-00513,2026-140G,2026-06-27T12:00:02.000160,15.37713336,.0006165,51.8821,348.8769,263.0236,314.8618,0,U,69598,999,260,.58213E-3,.21579E-3,0
KUIPER-00516,2026-140H,2026-06-27T12:00:02.000160,15.37326831,.0005839,51.8803,348.8993,282.0816,283.0135,0,U,69599,999,275,.59822E-3,.21906E-3,0
KUIPER-00517,2026-140J,2026-06-27T12:00:02.000160,15.38722630,.001024,51.8783,348.7971,223.4690,31.6125,0,U,69600,999,231,.61987E-3,.23813E-3,0
KUIPER-00520,2026-140K,2026-06-27T12:00:02.000160,15.37186652,.0005549,51.8832,348.9168,285.9129,273.3139,0,U,69601,999,268,.57311E-3,.2087E-3,0
KUIPER-00522,2026-140L,2026-06-27T12:00:02.000160,15.38193488,.0013997,51.8792,348.7323,197.7830,90.2353,0,U,69602,999,225,.67882E-3,.25708E-3,0
KUIPER-00528,2026-140M,2026-06-27T12:00:02.000160,15.37041534,.0004516,51.8803,348.9221,292.1935,261.6771,0,U,69603,999,130,.584E-3,.21171E-3,0
KUIPER-00532,2026-140N,2026-06-27T12:00:02.000160,15.36526429,.0004618,51.8805,348.9535,323.1398,215.2304,0,U,69604,999,275,.68582E-3,.24527E-3,0
