GUOWANG OBJECT D        
1 69575U 26137D   26178.35604332 -.00000116  00000+0  24075-4 0  9991
2 69575  49.9957 214.8332 0011108 258.4401 101.5250 13.89828486  1445
GUOWANG OBJECT E        
1 69576U 26137E   26178.49884575  .00000012  00000+0  12809-3 0  9991
2 69576  50.0006 214.2729 0011205 261.6925  98.2703 13.89826230  1465
GUOWANG OBJECT F        
1 69577U 26137F   26178.49788005  .00000008  00000+0  12421-3 0  9998
2 69577  50.0001 214.2613 0010654 257.6061 102.3645 13.89813043  1466
GUOWANG OBJECT G        
1 69578U 26137G   26178.28111271 -.00000007  00000+0  11082-3 0  9993
2 69578  49.9950 215.1041 0010928 261.8500  98.1159 13.90789809  1434
GUOWANG OBJECT H        
1 69579U 26137H   26176.48489301  .00000037  00000+0  14270-3 0  9990
2 69579  49.9967 222.2731 0010122 259.8752 100.1006 13.92076941  1185
GUOWANG OBJECT J        
1 69580U 26137J   26177.84775112  .00000026  00000+0  13420-3 0  9995
2 69580  49.9963 216.8154 0009809 259.3048 100.6747 13.92262275  1379
CENTISPACE-1 GROUP 05 O*
1 69582U 26138A   26178.52228110 -.00000384  00000+0 -11747-3 0  9994
2 69582  55.1414 242.9999 0010164 302.6733  57.3260 14.15475814  1488
CENTISPACE-1 GROUP 05 O*
1 69583U 26138B   26178.52094361 -.00000369  00000+0 -10949-3 0  9990
2 69583  55.1413 242.9906 0009112 302.4674  57.5419 14.15656939  1486
CENTISPACE-1 GROUP 05 O*
1 69584U 26138C   26178.52031292 -.00000261  00000+0 -54573-4 0  9998
2 69584  55.1416 242.9961 0009042 304.4570  55.5549 14.15740914  1489
CENTISPACE-1 GROUP 05 O*
1 69585U 26138D   26178.51915301 -.00000359  00000+0 -10372-3 0  9996
2 69585  55.1418 242.9798 0008594 302.9823  57.0325 14.15928294  1483
CENTISPACE-1 GROUP 05 O*
1 69586U 26138E   26178.51867369 -.00000318  00000+0 -82949-4 0  9992
2 69586  55.1415 242.9846 0008319 303.3518  56.6660 14.15994520  1488
CENTISPACE-1 GROUP 05 O*
1 69587U 26138F   26178.51905840 -.00000340  00000+0 -93984-4 0  9996
2 69587  55.1418 242.9879 0008162 307.9415  52.0821 14.15917759  1488
CENTISPACE-1 GROUP 05 O*
1 69588U 26138G   26178.51783707 -.00000309  00000+0 -78459-4 0  9998
2 69588  55.1418 242.9784 0007451 307.2578  52.7716 14.16082228  1482
SPACEMOBILE-008         
1 69589U 26139A   26178.51323760  .00000596  00000+0  50512-4 0  9995
2 69589  52.9937 215.6857 0004013  11.4857 348.6225 15.12780473  1540
SPACEMOBILE-009         
1 69590U 26139B   26178.51395242  .00000562  00000+0  48715-4 0  9996
2 69590  52.9929 215.6865 0004196   5.6278 354.4759 15.12673959  1543
SPACEMOBILE-010         
1 69591U 26139C   26178.51509045  .00000544  00000+0  47935-4 0  9998
2 69591  52.9934 215.6957 0004050 355.3386   4.7567 15.12505239  1554
KUIPER-00423            
1 69592U 26140A   26178.50002315  .00025845  00000+0  68181-3 0  9994
2 69592  51.8812 348.7365 0014194 200.3177  85.9456 15.38215993  1300
KUIPER-00428            
1 69593U 26140B   26178.50002315  .00020273  00000+0  56953-3 0  9999
2 69593  51.8820 348.9573 0006964 332.4245 205.9299 15.36489644  2755
KUIPER-00481            
1 69594U 26140C   26178.50002315  .00022667  00000+0  61367-3 0  9994
2 69594  51.8793 348.7807 0011548 208.6857  55.3347 15.37526946  2254
KUIPER-00490            
1 69595U 26140D   26178.50002315  .00021493  00000+0  58470-3 0  9992
2 69595  51.8791 348.8823 0005818 267.4908 305.2061 15.37458297  2731
KUIPER-00493            
1 69596U 26140E   26178.50002315  .00019414  00000+0  55035-3 0  9997
2 69596  51.8820 348.9816 0006763 340.8377 185.6244 15.36237205  2224
KUIPER-00496            
1 69597U 26140F   26178.50002315  .00020315  00000+0  59126-3 0  9995
2 69597  51.8808 349.0098 0008245 346.5613 164.1913 15.35370741  2764
KUIPER-00513            
1 69598U 26140G   26178.50002315  .00021579  00000+0  58213-3 0  9995
2 69598  51.8821 348.8769 0006165 263.0236 314.8618 15.37713336  2607
KUIPER-00516            
1 69599U 26140H   26178.50002315  .00021906  00000+0  59822-3 0  9997
2 69599  51.8803 348.8993 0005839 282.0816 283.0135 15.37326831  2756
KUIPER-00517            
1 69600U 26140J   26178.50002315  .00023813  00000+0  61987-3 0  9994
2 69600  51.8783 348.7971 0010240 223.4690  31.6125 15.38722630  2318
KUIPER-00520            
1 69601U 26140K   26178.50002315  .00020870  00000+0  57311-3 0  9991
2 69601  51.8832 348.9168 0005549 285.9129 273.3139 15.37186652  2687
KUIPER-00522            
1 69602U 26140L   26178.50002315  .00025708  00000+0  67882-3 0  9991
2 69602  51.8792 348.7323 0013997 197.7830  90.2353 15.38193488  2252
KUIPER-00528            
1 69603U 26140M   26178.50002315  .00021171  00000+0  58400-3 0  9998
2 69603  51.8803 348.9221 0004516 292.1935 261.6771 15.37041534  1304
KUIPER-00532            
1 69604U 26140N   26178.50002315  .00024527  00000+0  68582-3 0  9999
2 69604  51.8805 348.9535 0004618 323.1398 215.2304 15.36526429  2753
